{"type": "FeatureCollection", "features": [ {"type": "Feature", "properties": {"norad_id": 66899, "name": "STARLINK-36064", "group": "last-30-days", "lat": 53.10658417048592, "lon": 106.06533868419186, "alt_km": 369.40076966150446, "timestamp": "2025-12-24T20:42:19.747090+00:00", "meta": {"OBJECT_NAME": "STARLINK-36064", "OBJECT_ID": "2025-283X", "EPOCH": "2025-12-24T06:00:02.000160", "MEAN_MOTION": 15.66207823, "ECCENTRICITY": 0.00013424, "INCLINATION": 53.1593, "RA_OF_ASC_NODE": 16.2662, "ARG_OF_PERICENTER": 90.8727, "MEAN_ANOMALY": 147.1731, "EPHEMERIS_TYPE": 0, "CLASSIFICATION_TYPE": "U", "NORAD_CAT_ID": 66899, "ELEMENT_SET_NO": 999, "REV_AT_EPOCH": 421, "BSTAR": -0.021977736, "MEAN_MOTION_DOT": -0.02028017, "MEAN_MOTION_DDOT": 0}, "tle": {"line1": "1 66899U 25283X   25358.25002315 -.02028017  00000+0 -21978-1 0  9998", "line2": "2 66899  53.1593  16.2662 0001342  90.8727 147.1731 15.66207823  4213"}}, "geometry": {"type": "Point", "coordinates": [106.06533868419186, 53.10658417048592]}}, {"type": "Feature", "properties": {"norad_id": 66900, "name": "STARLINK-36074", "group": "last-30-days", "lat": 52.989199837479305, "lon": 109.24985362094692, "alt_km": 369.4270637259915, "timestamp": "2025-12-24T20:42:19.747100+00:00", "meta": {"OBJECT_NAME": "STARLINK-36074", "OBJECT_ID": "2025-283Y", "EPOCH": "2025-12-24T06:00:02.000160", "MEAN_MOTION": 15.66204241, "ECCENTRICITY": 0.00013301, "INCLINATION": 53.1596, "RA_OF_ASC_NODE": 16.2624, "ARG_OF_PERICENTER": 90.207, "MEAN_ANOMALY": 149.7594, "EPHEMERIS_TYPE": 0, "CLASSIFICATION_TYPE": "U", "NORAD_CAT_ID": 66900, "ELEMENT_SET_NO": 999, "REV_AT_EPOCH": 427, "BSTAR": -0.021954209, "MEAN_MOTION_DOT": -0.02025844, "MEAN_MOTION_DDOT": 0}, "tle": {"line1": "1 66900U 25283Y   25358.25002315 -.02025844  00000+0 -21954-1 0  9990", "line2": "2 66900  53.1596  16.2624 0001330  90.2070 149.7594 15.66204241  4271"}}, "geometry": {"type": "Point", "coordinates": [109.24985362094692, 52.989199837479305]}}, {"type": "Feature", "properties": {"norad_id": 66901, "name": "STARLINK-36043", "group": "last-30-days", "lat": 52.786701600412925, "lon": 112.41130890387865, "alt_km": 369.51038354967295, "timestamp": "2025-12-24T20:42:19.747110+00:00", "meta": {"OBJECT_NAME": "STARLINK-36043", "OBJECT_ID": "2025-283Z", "EPOCH": "2025-12-24T06:00:02.000160", "MEAN_MOTION": 15.66206605, "ECCENTRICITY": 0.00012528, "INCLINATION": 53.1596, "RA_OF_ASC_NODE": 16.2578, "ARG_OF_PERICENTER": 91.7345, "MEAN_ANOMALY": 150.1463, "EPHEMERIS_TYPE": 0, "CLASSIFICATION_TYPE": "U", "NORAD_CAT_ID": 66901, "ELEMENT_SET_NO": 999, "REV_AT_EPOCH": 427, "BSTAR": -0.021967779, "MEAN_MOTION_DOT": -0.02027051, "MEAN_MOTION_DDOT": 0}, "tle": {"line1": "1 66901U 25283Z   25358.25002315 -.02027051  00000+0 -21968-1 0  9998", "line2": "2 66901  53.1596  16.2578 0001252  91.7345 150.1463 15.66206605  4271"}}, "geometry": {"type": "Point", "coordinates": [112.41130890387865, 52.786701600412925]}}, {"type": "Feature", "properties": {"norad_id": 66902, "name": "STARLINK-35983", "group": "last-30-days", "lat": 52.50035638273897, "lon": 115.54093648922081, "alt_km": 369.44408578961884, "timestamp": "2025-12-24T20:42:19.747119+00:00", "meta": {"OBJECT_NAME": "STARLINK-35983", "OBJECT_ID": "2025-283AA", "EPOCH": "2025-12-24T06:00:02.000160", "MEAN_MOTION": 15.66199848, "ECCENTRICITY": 0.0001386, "INCLINATION": 53.1594, "RA_OF_ASC_NODE": 16.2542, "ARG_OF_PERICENTER": 89.7382, "MEAN_ANOMALY": 154.0627, "EPHEMERIS_TYPE": 0, "CLASSIFICATION_TYPE": "U", "NORAD_CAT_ID": 66902, "ELEMENT_SET_NO": 999, "REV_AT_EPOCH": 427, "BSTAR": -0.021875355, "MEAN_MOTION_DOT": -0.02019188, "MEAN_MOTION_DDOT": 0}, "tle": {"line1": "1 66902U 25283AA  25358.25002315 -.02019188  00000+0 -21875-1 0  9998", "line2": "2 66902  53.1594  16.2542 0001386  89.7382 154.0627 15.66199848  4272"}}, "geometry": {"type": "Point", "coordinates": [115.54093648922081, 52.50035638273897]}}, {"type": "Feature", "properties": {"norad_id": 66903, "name": "STARLINK-36077", "group": "last-30-days", "lat": 52.132930582298, "lon": 118.62261582692288, "alt_km": 369.5102139965238, "timestamp": "2025-12-24T20:42:19.747131+00:00", "meta": {"OBJECT_NAME": "STARLINK-36077", "OBJECT_ID": "2025-283AB", "EPOCH": "2025-12-24T06:00:02.000160", "MEAN_MOTION": 15.66197986, "ECCENTRICITY": 0.00013579, "INCLINATION": 53.1595, "RA_OF_ASC_NODE": 16.2504, "ARG_OF_PERICENTER": 91.0942, "MEAN_ANOMALY": 154.6238, "EPHEMERIS_TYPE": 0, "CLASSIFICATION_TYPE": "U", "NORAD_CAT_ID": 66903, "ELEMENT_SET_NO": 999, "REV_AT_EPOCH": 427, "BSTAR": -0.02183797, "MEAN_MOTION_DOT": -0.02016004, "MEAN_MOTION_DDOT": 0}, "tle": {"line1": "1 66903U 25283AB  25358.25002315 -.02016004  00000+0 -21838-1 0  9992", "line2": "2 66903  53.1595  16.2504 0001357  91.0942 154.6238 15.66197986  4273"}}, "geometry": {"type": "Point", "coordinates": [118.62261582692288, 52.132930582298]}}, {"type": "Feature", "properties": {"norad_id": 66904, "name": "STARLINK-36059", "group": "last-30-days", "lat": 51.686547078182, "lon": 121.64440751697028, "alt_km": 369.64020588363746, "timestamp": "2025-12-24T20:42:19.747141+00:00", "meta": {"OBJECT_NAME": "STARLINK-36059", "OBJECT_ID": "2025-283AC", "EPOCH": "2025-12-24T06:00:02.000160", "MEAN_MOTION": 15.66199136, "ECCENTRICITY": 0.00012772, "INCLINATION": 53.1593, "RA_OF_ASC_NODE": 16.2454, "ARG_OF_PERICENTER": 91.3561, "MEAN_ANOMALY": 156.2796, "EPHEMERIS_TYPE": 0, "CLASSIFICATION_TYPE": "U", "NORAD_CAT_ID": 66904, "ELEMENT_SET_NO": 999, "REV_AT_EPOCH": 427, "BSTAR": -0.021867964, "MEAN_MOTION_DOT": -0.02018453, "MEAN_MOTION_DDOT": 0}, "tle": {"line1": "1 66904U 25283AC  25358.25002315 -.02018453  00000+0 -21868-1 0  9996", "line2": "2 66904  53.1593  16.2454 0001277  91.3561 156.2796 15.66199136  4273"}}, "geometry": {"type": "Point", "coordinates": [121.64440751697028, 51.686547078182]}}, {"type": "Feature", "properties": {"norad_id": 66905, "name": "STARLINK-36075", "group": "last-30-days", "lat": 51.16485662294324, "lon": 124.60141710897467, "alt_km": 369.73098520650456, "timestamp": "2025-12-24T20:42:19.747153+00:00", "meta": {"OBJECT_NAME": "STARLINK-36075", "OBJECT_ID": "2025-283AD", "EPOCH": "2025-12-24T06:00:02.000160", "MEAN_MOTION": 15.66207211, "ECCENTRICITY": 0.00012805, "INCLINATION": 53.1595, "RA_OF_ASC_NODE": 16.2421, "ARG_OF_PERICENTER": 91.5475, "MEAN_ANOMALY": 158, "EPHEMERIS_TYPE": 0, "CLASSIFICATION_TYPE": "U", "NORAD_CAT_ID": 66905, "ELEMENT_SET_NO": 999, "REV_AT_EPOCH": 427, "BSTAR": -0.021975514, "MEAN_MOTION_DOT": -0.02027743, "MEAN_MOTION_DDOT": 0}, "tle": {"line1": "1 66905U 25283AD  25358.25002315 -.02027743  00000+0 -21976-1 0  9999", "line2": "2 66905  53.1595  16.2421 0001280  91.5475 158.0000 15.66207211  4272"}}, "geometry": {"type": "Point", "coordinates": [124.60141710897467, 51.16485662294324]}}, {"type": "Feature", "properties": {"norad_id": 66906, "name": "1998-067XS", "group": "last-30-days", "lat": 48.07475513935336, "lon": -159.64311700644367, "alt_km": 408.2795069120575, "timestamp": "2025-12-24T20:42:19.747163+00:00", "meta": {"OBJECT_NAME": "1998-067XS", "OBJECT_ID": "1998-067XS", "EPOCH": "2025-12-23T13:19:00.111360", "MEAN_MOTION": 15.51136039, "ECCENTRICITY": 0.00028154, "INCLINATION": 51.6316, "RA_OF_ASC_NODE": 88.7613, "ARG_OF_PERICENTER": 256.8779, "MEAN_ANOMALY": 103.1896, "EPHEMERIS_TYPE": 0, "CLASSIFICATION_TYPE": "U", "NORAD_CAT_ID": 66906, "ELEMENT_SET_NO": 999, "REV_AT_EPOCH": 329, "BSTAR": 0.00048512679, "MEAN_MOTION_DOT": 0.0002847, "MEAN_MOTION_DDOT": 0}, "tle": {"line1": "1 66906U 98067XS  25357.55486240  .00028470  00000+0  48513-3 0  9997", "line2": "2 66906  51.6316  88.7613 0002815 256.8779 103.1896 15.51136039  3290"}}, "geometry": {"type": "Point", "coordinates": [-159.64311700644367, 48.07475513935336]}}, {"type": "Feature", "properties": {"norad_id": 66907, "name": "1998-067XT", "group": "last-30-days", "lat": -0.23837218142491354, "lon": -97.6952163235227, "alt_km": 410.129412008936, "timestamp": "2025-12-24T20:42:19.747173+00:00", "meta": {"OBJECT_NAME": "1998-067XT", "OBJECT_ID": "1998-067XT", "EPOCH": "2025-12-23T11:29:49.841376", "MEAN_MOTION": 15.52745506, "ECCENTRICITY": 0.0003882, "INCLINATION": 51.6313, "RA_OF_ASC_NODE": 89.0045, "ARG_OF_PERICENTER": 291.7662, "MEAN_ANOMALY": 68.2915, "EPHEMERIS_TYPE": 0, "CLASSIFICATION_TYPE": "U", "NORAD_CAT_ID": 66907, "ELEMENT_SET_NO": 999, "REV_AT_EPOCH": 328, "BSTAR": 0.0010348952, "MEAN_MOTION_DOT": 0.00065231, "MEAN_MOTION_DDOT": 0}, "tle": {"line1": "1 66907U 98067XT  25357.47904909  .00065231  00000+0  10349-2 0  9997", "line2": "2 66907  51.6313  89.0045 0003882 291.7662  68.2915 15.52745506  3283"}}, "geometry": {"type": "Point", "coordinates": [-97.6952163235227, -0.23837218142491354]}}, {"type": "Feature", "properties": {"norad_id": 66908, "name": "1998-067XU", "group": "last-30-days", "lat": -4.926491733514006, "lon": -93.98106873580795, "alt_km": 410.1207542301172, "timestamp": "2025-12-24T20:42:19.747183+00:00", "meta": {"OBJECT_NAME": "1998-067XU", "OBJECT_ID": "1998-067XU", "EPOCH": "2025-12-23T11:28:24.726144", "MEAN_MOTION": 15.52842233, "ECCENTRICITY": 0.00039209, "INCLINATION": 51.6312, "RA_OF_ASC_NODE": 88.9976, "ARG_OF_PERICENTER": 289.9814, "MEAN_ANOMALY": 70.0754, "EPHEMERIS_TYPE": 0, "CLASSIFICATION_TYPE": "U", "NORAD_CAT_ID": 66908, "ELEMENT_SET_NO": 999, "REV_AT_EPOCH": 328, "BSTAR": 0.0010206619, "MEAN_MOTION_DOT": 0.00064549, "MEAN_MOTION_DDOT": 0}, "tle": {"line1": "1 66908U 98067XU  25357.47806396  .00064549  00000+0  10207-2 0  9993", "line2": "2 66908  51.6312  88.9976 0003920 289.9814  70.0754 15.52842233  3282"}}, "geometry": {"type": "Point", "coordinates": [-93.98106873580795, -4.926491733514006]}}]}